Starlink-3111
1 49418U 21104L   25334.21198672 -.00001446  00000-0 -72743-4 0  9991
2 49418  53.2182 315.6945 0001664  89.4308 270.6875 15.08844206223607
